ObjectID,SingleLine,Address,City,State,Zip,Country
1,316 GRANT ST Redlands CA 92373,316 GRANT ST,REDLANDS,CA,92373,USA
2,838 ALTA ST Redlands CA 92374,838 ALTA ST,REDLANDS,CA,92374,USA
3,319 GRANT ST Redlands CA 92373,319 GRANT ST,REDLANDS,CA,92373,USA
4,850 E COLTON AV Redlands CA 92374,850 E COLTON AV,REDLANDS,CA,92374,USA
5,105 N CIRCLE Redlands CA 92373,105 N CIRCLE,REDLANDS,CA,92373,USA
6,5 FIRST ST N Redlands CA 92373,5 FIRST ST N,REDLANDS,CA,92373,USA
7,850 COLLEGE AVE Redlands CA 92374,850 COLLEGE AVE,REDLANDS,CA,92374,USA
8,110 E STATE ST Redlands CA 92373,110 E STATE ST,REDLANDS,CA,92373,USA
9,710 CHURCH ST Redlands CA 92374,710 CHURCH ST,REDLANDS,CA,92374,USA
10,602 N 6TH ST Redlands CA 92374,602 N 6TH ST,REDLANDS,CA,92374,USA
11,39 S CENTER ST Redlands CA 92373,39 S CENTER ST,REDLANDS,CA,92373,USA
12,209  EUREKA ST N Redlands CA 92373,209  EUREKA ST N,REDLANDS,CA,92373,USA
13,397 MYRTLE ST Redlands CA 92373,397 MYRTLE ST,REDLANDS,CA,92373,USA
14,599 N ORANGE ST Redlands CA 92374,599 N ORANGE ST,REDLANDS,CA,92374,USA
15,626 ORCHARD DR Redlands CA 92374,626 ORCHARD DR,REDLANDS,CA,92374,USA
16,723 PINE AVE Redlands CA 92373,723 PINE AVE,REDLANDS,CA,92373,USA
17,11 E FERN AV Redlands CA 92373,11 E FERN AV,REDLANDS,CA,92373,USA
18,811 SYLVAN BLVD E Redlands CA 92374,811 SYLVAN BLVD E,REDLANDS,CA,92374,USA
19,"616 BROOKSIDE AV, #6 Redlands CA 92373","616 BROOKSIDE AV, #6",REDLANDS,CA,92373,USA
20,430 TEXAS ST Redlands CA 92374,430 TEXAS ST,REDLANDS,CA,92374,USA
21,397 W REDLANDS BL Redlands CA 92373,397 W REDLANDS BL,REDLANDS,CA,92373,USA
22,840 E CITRUS AV Redlands CA 92374,840 E CITRUS AV,REDLANDS,CA,92374,USA
23,855 WEBSTER ST Redlands CA 92374,855 WEBSTER ST,REDLANDS,CA,92374,USA
24,212 BROOKSIDE AV Redlands CA 92373,212 BROOKSIDE AV,REDLANDS,CA,92373,USA
25,361 NEW YORK ST Redlands CA 92373,361 NEW YORK ST,REDLANDS,CA,92373,USA
26,GRANT ST & W OLIVE AVE Redlands CA 92373,GRANT ST & W OLIVE AVE,REDLANDS,CA,92373,USA
